STARLINK-36564          
1 67549U 26014T   26035.16668981 -.01491189  00000+0 -82312-2 0  9997
2 67549  97.2786 278.3937 0001240  87.3114 247.5408 15.82272885  3249
STARLINK-36563          
1 67550U 26014U   26035.16668981 -.01527912  00000+0 -83721-2 0  9998
2 67550  97.2776 278.3952 0001350  85.1855 256.0646 15.82497075  3303
STARLINK-36566          
1 67551U 26014V   26035.16668981 -.01480699  00000+0 -80172-2 0  9996
2 67551  97.2773 278.3979 0001125 101.6651 245.4061 15.82664772  3301
STARLINK-36567          
1 67552U 26014W   26035.16668981 -.01516971  00000+0 -81597-2 0  9992
2 67552  97.2770 278.3995 0001240  88.9100 264.0250 15.82870787  3303
STARLINK-36569          
1 67553U 26014X   26035.16668981 -.01516141  00000+0 -80571-2 0  9993
2 67553  97.2770 278.4030 0001219  91.4828 269.1502 15.83125655  3301
STARLINK-36395          
1 67554U 26014Y   26035.16668981 -.01526706  00000+0 -78639-2 0  9994
2 67554  97.2768 278.4118 0001253  88.9228 292.0752 15.83802273  3309
STARLINK-36559          
1 67555U 26014Z   26035.16668981 -.01523458  00000+0 -79218-2 0  9990
2 67555  97.2770 278.4092 0001288  86.2363 288.5631 15.83596928  3306
MR-1                    
1 67556U 26015A   26035.12985639  .00000081  00000+0  10375-3 0  9999
2 67556  88.9987 282.0723 0005051  98.8011 261.3713 13.52685741  1727
MR-2                    
1 67557U 26015B   26035.13008505  .00000045  00000+0  49414-4 0  9996
2 67557  88.9987 282.0725 0005131  97.8146 262.3588 13.52660679  1721
ELECTRON R/B            
1 67558U 26015C   26035.16666258  .01313078 -66753-6  12107-2 0  9991
2 67558  89.0020 281.7202 0547175 223.8936 131.7597 15.05280873  1908
ELECTRON KICK STAGE R/B 
1 67559U 26015D   26035.17914888  .00063420  17358-6  10787-2 0  9998
2 67559  89.0516 281.8553 0534191 291.0747  63.4152 14.66816851  1871
STARLINK-36426          
1 67560U 26014AA  26035.16668981 -.01531986  00000+0 -80760-2 0  9995
2 67560  97.2767 278.4052 0001425  90.5252 275.8926 15.83322770  2141
