CCSDS_OMM_VERS = 2.0
CREATION_DATE  = 
ORIGINATOR     = 

OBJECT_NAME    = STARLINK-36564
OBJECT_ID      = 2026-014T
CENTER_NAME    = EARTH
REF_FRAME      = TEME
TIME_SYSTEM    = UTC
MEAN_ELEMENT_THEORY = SGP/SGP4

EPOCH          = 2026-02-04T04:00:01.999584
MEAN_MOTION    = 15.82272885
ECCENTRICITY   = .000124
INCLINATION    = 97.2786
RA_OF_ASC_NODE = 278.3937
ARG_OF_PERICENTER = 87.3114
MEAN_ANOMALY   = 247.5408

EPHEMERIS_TYPE = 0
CLASSIFICATION_TYPE = U
NORAD_CAT_ID   = 67549
ELEMENT_SET_NO = 999
REV_AT_EPOCH   = 324
BSTAR          = -.82312E-2
MEAN_MOTION_DOT = -.1491189E-1
MEAN_MOTION_DDOT = 0

CCSDS_OMM_VERS = 2.0
CREATION_DATE  = 
ORIGINATOR     = 

OBJECT_NAME    = STARLINK-36563
OBJECT_ID      = 2026-014U
CENTER_NAME    = EARTH
REF_FRAME      = TEME
TIME_SYSTEM    = UTC
MEAN_ELEMENT_THEORY = SGP/SGP4

EPOCH          = 2026-02-04T04:00:01.999584
MEAN_MOTION    = 15.82497075
ECCENTRICITY   = .000135
INCLINATION    = 97.2776
RA_OF_ASC_NODE = 278.3952
ARG_OF_PERICENTER = 85.1855
MEAN_ANOMALY   = 256.0646

EPHEMERIS_TYPE = 0
CLASSIFICATION_TYPE = U
NORAD_CAT_ID   = 67550
ELEMENT_SET_NO = 999
REV_AT_EPOCH   = 330
BSTAR          = -.83721E-2
MEAN_MOTION_DOT = -.1527912E-1
MEAN_MOTION_DDOT = 0

CCSDS_OMM_VERS = 2.0
CREATION_DATE  = 
ORIGINATOR     = 

OBJECT_NAME    = STARLINK-36566
OBJECT_ID      = 2026-014V
CENTER_NAME    = EARTH
REF_FRAME      = TEME
TIME_SYSTEM    = UTC
MEAN_ELEMENT_THEORY = SGP/SGP4

EPOCH          = 2026-02-04T04:00:01.999584
MEAN_MOTION    = 15.82664772
ECCENTRICITY   = .0001125
INCLINATION    = 97.2773
RA_OF_ASC_NODE = 278.3979
ARG_OF_PERICENTER = 101.6651
MEAN_ANOMALY   = 245.4061

EPHEMERIS_TYPE = 0
CLASSIFICATION_TYPE = U
NORAD_CAT_ID   = 67551
ELEMENT_SET_NO = 999
REV_AT_EPOCH   = 330
BSTAR          = -.80172E-2
MEAN_MOTION_DOT = -.1480699E-1
MEAN_MOTION_DDOT = 0

CCSDS_OMM_VERS = 2.0
CREATION_DATE  = 
ORIGINATOR     = 

OBJECT_NAME    = STARLINK-36567
OBJECT_ID      = 2026-014W
CENTER_NAME    = EARTH
REF_FRAME      = TEME
TIME_SYSTEM    = UTC
MEAN_ELEMENT_THEORY = SGP/SGP4

EPOCH          = 2026-02-04T04:00:01.999584
MEAN_MOTION    = 15.82870787
ECCENTRICITY   = .000124
INCLINATION    = 97.2770
RA_OF_ASC_NODE = 278.3995
ARG_OF_PERICENTER = 88.9100
MEAN_ANOMALY   = 264.0250

EPHEMERIS_TYPE = 0
CLASSIFICATION_TYPE = U
NORAD_CAT_ID   = 67552
ELEMENT_SET_NO = 999
REV_AT_EPOCH   = 330
BSTAR          = -.81597E-2
MEAN_MOTION_DOT = -.1516971E-1
MEAN_MOTION_DDOT = 0

CCSDS_OMM_VERS = 2.0
CREATION_DATE  = 
ORIGINATOR     = 

OBJECT_NAME    = STARLINK-36569
OBJECT_ID      = 2026-014X
CENTER_NAME    = EARTH
REF_FRAME      = TEME
TIME_SYSTEM    = UTC
MEAN_ELEMENT_THEORY = SGP/SGP4

EPOCH          = 2026-02-04T04:00:01.999584
MEAN_MOTION    = 15.83125655
ECCENTRICITY   = .0001219
INCLINATION    = 97.2770
RA_OF_ASC_NODE = 278.4030
ARG_OF_PERICENTER = 91.4828
MEAN_ANOMALY   = 269.1502

EPHEMERIS_TYPE = 0
CLASSIFICATION_TYPE = U
NORAD_CAT_ID   = 67553
ELEMENT_SET_NO = 999
REV_AT_EPOCH   = 330
BSTAR          = -.80571E-2
MEAN_MOTION_DOT = -.1516141E-1
MEAN_MOTION_DDOT = 0

CCSDS_OMM_VERS = 2.0
CREATION_DATE  = 
ORIGINATOR     = 

OBJECT_NAME    = STARLINK-36395
OBJECT_ID      = 2026-014Y
CENTER_NAME    = EARTH
REF_FRAME      = TEME
TIME_SYSTEM    = UTC
MEAN_ELEMENT_THEORY = SGP/SGP4

EPOCH          = 2026-02-04T04:00:01.999584
MEAN_MOTION    = 15.83802273
ECCENTRICITY   = .0001253
INCLINATION    = 97.2768
RA_OF_ASC_NODE = 278.4118
ARG_OF_PERICENTER = 88.9228
MEAN_ANOMALY   = 292.0752

EPHEMERIS_TYPE = 0
CLASSIFICATION_TYPE = U
NORAD_CAT_ID   = 67554
ELEMENT_SET_NO = 999
REV_AT_EPOCH   = 330
BSTAR          = -.78639E-2
MEAN_MOTION_DOT = -.1526706E-1
MEAN_MOTION_DDOT = 0

CCSDS_OMM_VERS = 2.0
CREATION_DATE  = 
ORIGINATOR     = 

OBJECT_NAME    = STARLINK-36559
OBJECT_ID      = 2026-014Z
CENTER_NAME    = EARTH
REF_FRAME      = TEME
TIME_SYSTEM    = UTC
MEAN_ELEMENT_THEORY = SGP/SGP4

EPOCH          = 2026-02-04T04:00:01.999584
MEAN_MOTION    = 15.83596928
ECCENTRICITY   = .0001288
INCLINATION    = 97.2770
RA_OF_ASC_NODE = 278.4092
ARG_OF_PERICENTER = 86.2363
MEAN_ANOMALY   = 288.5631

EPHEMERIS_TYPE = 0
CLASSIFICATION_TYPE = U
NORAD_CAT_ID   = 67555
ELEMENT_SET_NO = 999
REV_AT_EPOCH   = 330
BSTAR          = -.79218E-2
MEAN_MOTION_DOT = -.1523458E-1
MEAN_MOTION_DDOT = 0

CCSDS_OMM_VERS = 2.0
CREATION_DATE  = 
ORIGINATOR     = 

OBJECT_NAME    = MR-1
OBJECT_ID      = 2026-015A
CENTER_NAME    = EARTH
REF_FRAME      = TEME
TIME_SYSTEM    = UTC
MEAN_ELEMENT_THEORY = SGP/SGP4

EPOCH          = 2026-02-04T03:06:59.592096
MEAN_MOTION    = 13.52685741
ECCENTRICITY   = .0005051
INCLINATION    = 88.9987
RA_OF_ASC_NODE = 282.0723
ARG_OF_PERICENTER = 98.8011
MEAN_ANOMALY   = 261.3713

EPHEMERIS_TYPE = 0
CLASSIFICATION_TYPE = U
NORAD_CAT_ID   = 67556
ELEMENT_SET_NO = 999
REV_AT_EPOCH   = 172
BSTAR          = .10375E-3
MEAN_MOTION_DOT = .81E-6
MEAN_MOTION_DDOT = 0

CCSDS_OMM_VERS = 2.0
CREATION_DATE  = 
ORIGINATOR     = 

OBJECT_NAME    = MR-2
OBJECT_ID      = 2026-015B
CENTER_NAME    = EARTH
REF_FRAME      = TEME
TIME_SYSTEM    = UTC
MEAN_ELEMENT_THEORY = SGP/SGP4

EPOCH          = 2026-02-04T03:07:19.348320
MEAN_MOTION    = 13.52660679
ECCENTRICITY   = .0005131
INCLINATION    = 88.9987
RA_OF_ASC_NODE = 282.0725
ARG_OF_PERICENTER = 97.8146
MEAN_ANOMALY   = 262.3588

EPHEMERIS_TYPE = 0
CLASSIFICATION_TYPE = U
NORAD_CAT_ID   = 67557
ELEMENT_SET_NO = 999
REV_AT_EPOCH   = 172
BSTAR          = .49414E-4
MEAN_MOTION_DOT = .45E-6
MEAN_MOTION_DDOT = 0

CCSDS_OMM_VERS = 2.0
CREATION_DATE  = 
ORIGINATOR     = 

OBJECT_NAME    = ELECTRON R/B
OBJECT_ID      = 2026-015C
CENTER_NAME    = EARTH
REF_FRAME      = TEME
TIME_SYSTEM    = UTC
MEAN_ELEMENT_THEORY = SGP/SGP4

EPOCH          = 2026-02-04T03:59:59.646912
MEAN_MOTION    = 15.05280873
ECCENTRICITY   = .0547175
INCLINATION    = 89.0020
RA_OF_ASC_NODE = 281.7202
ARG_OF_PERICENTER = 223.8936
MEAN_ANOMALY   = 131.7597

EPHEMERIS_TYPE = 0
CLASSIFICATION_TYPE = U
NORAD_CAT_ID   = 67558
ELEMENT_SET_NO = 999
REV_AT_EPOCH   = 190
BSTAR          = .12107E-2
MEAN_MOTION_DOT = .1313078E-1
MEAN_MOTION_DDOT = -.66753E-6

CCSDS_OMM_VERS = 2.0
CREATION_DATE  = 
ORIGINATOR     = 

OBJECT_NAME    = ELECTRON KICK STAGE R/B
OBJECT_ID      = 2026-015D
CENTER_NAME    = EARTH
REF_FRAME      = TEME
TIME_SYSTEM    = UTC
MEAN_ELEMENT_THEORY = SGP/SGP4

EPOCH          = 2026-02-04T04:17:58.463232
MEAN_MOTION    = 14.66816851
ECCENTRICITY   = .0534191
INCLINATION    = 89.0516
RA_OF_ASC_NODE = 281.8553
ARG_OF_PERICENTER = 291.0747
MEAN_ANOMALY   = 63.4152

EPHEMERIS_TYPE = 0
CLASSIFICATION_TYPE = U
NORAD_CAT_ID   = 67559
ELEMENT_SET_NO = 999
REV_AT_EPOCH   = 187
BSTAR          = .10787E-2
MEAN_MOTION_DOT = .6342E-3
MEAN_MOTION_DDOT = .17358E-6

CCSDS_OMM_VERS = 2.0
CREATION_DATE  = 
ORIGINATOR     = 

OBJECT_NAME    = STARLINK-36426
OBJECT_ID      = 2026-014AA
CENTER_NAME    = EARTH
REF_FRAME      = TEME
TIME_SYSTEM    = UTC
MEAN_ELEMENT_THEORY = SGP/SGP4

EPOCH          = 2026-02-04T04:00:01.999584
MEAN_MOTION    = 15.83322770
ECCENTRICITY   = .0001425
INCLINATION    = 97.2767
RA_OF_ASC_NODE = 278.4052
ARG_OF_PERICENTER = 90.5252
MEAN_ANOMALY   = 275.8926

EPHEMERIS_TYPE = 0
CLASSIFICATION_TYPE = U
NORAD_CAT_ID   = 67560
ELEMENT_SET_NO = 999
REV_AT_EPOCH   = 214
BSTAR          = -.8076E-2
MEAN_MOTION_DOT = -.1531986E-1
MEAN_MOTION_DDOT = 0

